OBJECT_NAME,OBJECT_ID,EPOCH,MEAN_MOTION,ECCENTRICITY,INCLINATION,RA_OF_ASC_NODE,ARG_OF_PERICENTER,MEAN_ANOMALY,EPHEMERIS_TYPE,CLASSIFICATION_TYPE,NORAD_CAT_ID,ELEMENT_SET_NO,REV_AT_EPOCH,BSTAR,MEAN_MOTION_DOT,MEAN_MOTION_DDOT
ELEKTRO-L 3,2019-095A,2026-06-26T12:54:56.877984,1.00272481,.0001516,0.2811,81.9651,2.5316,99.8706,0,U,44903,999,2380,0,-.85E-6,0
SHIJIAN-20 (SJ-20),2019-097A,2026-06-27T23:33:51.763104,1.00274043,.0015561,4.9451,74.9367,55.3176,184.0657,0,U,44910,999,2380,0,.142E-5,0
TJS-5,2020-002A,2026-06-28T05:12:38.590848,1.00270048,.000797,0.0213,39.1662,12.5701,50.2337,0,U,44978,999,2382,0,-.33E-5,0
GSAT-30,2020-005A,2026-06-28T11:12:38.452608,1.00270524,.00037383,0.0230,38.7919,47.6185,81.3444,0,U,45026,999,2362,0,0,0
EUTELSAT KONNECT,2020-005B,2026-06-28T12:29:38.090400,1.00270432,.00019616,0.0716,94.0621,125.1530,252.0127,0,U,45027,999,2445,0,.61E-6,0
JCSAT-17,2020-013A,2026-06-28T09:08:38.880384,1.00272186,.00031617,5.3917,356.9767,103.8507,88.8298,0,U,45245,999,2334,0,-.303E-5,0
GEO-KOMPSAT-2B,2020-013B,2026-06-28T13:04:10.281216,1.00272034,.00001362,0.0422,219.7074,262.8091,118.4262,0,U,45246,999,2339,0,-.332E-5,0
BEIDOU-3 G2,2020-017A,2026-06-28T14:33:04.670784,1.00272004,.00025991,2.8871,47.5225,41.0597,126.4813,0,U,45344,999,2337,0,-.132E-5,0
AEHF-6 (USA 298),2020-022B,2026-06-28T14:49:24.057984,1.00267820,.00424722,2.5239,301.3023,17.2372,318.2163,0,U,45465,999,2312,0,-.284E-5,0
BEIDOU-3 G3,2020-040A,2026-06-28T09:33:49.650048,1.00273939,.00026044,2.4745,67.4777,330.9814,132.0434,0,U,45807,999,2218,0,-.345E-5,0
APSTAR-6D,2020-045A,2026-06-28T11:23:12.348672,1.00271304,.00022441,0.0503,97.6806,354.3631,129.3520,0,U,45863,999,2197,0,-.306E-5,0
KOREASAT 116,2020-048A,2026-06-28T15:49:13.178784,1.00270844,.0001269,0.0169,14.3275,98.5998,157.3477,0,U,45920,999,2175,0,-.35E-5,0
EXPRESS 103,2020-053A,2026-06-27T16:33:39.963168,1.00271621,.00005444,0.0194,278.9362,49.3417,292.4363,0,U,45985,999,2175,0,-.269E-5,0
EXPRESS 80,2020-053B,2026-06-28T00:15:35.335296,1.00271223,.00020939,0.0195,348.6706,217.9091,153.4096,0,U,45986,999,2173,0,0,0
BSAT-4B,2020-056A,2026-06-28T14:41:33.856224,1.00270232,.00045481,0.0427,170.2705,309.9934,126.6545,0,U,46112,999,2150,0,-.338E-5,0
MEV-2,2020-056B,2026-06-28T09:01:54.029856,1.00279320,.0000745,0.0291,284.0988,227.6296,259.2227,0,U,46113,999,8056,0,.2E-7,0
GALAXY 30 (G-30),2020-056C,2026-06-28T13:34:32.535840,1.00272318,.00022856,0.0186,20.7083,74.0504,260.5201,0,U,46114,999,2140,0,.48E-6,0
GAOFEN-13 01,2020-071A,2026-06-27T23:35:23.716896,1.00276332,.0044592,0.4251,86.4737,119.5068,182.1818,0,U,46610,999,2102,0,-.351E-5,0
TIANTONG-1 2,2020-082A,2026-06-28T15:52:49.708416,1.00271576,.00017448,0.7762,329.1599,121.6208,189.1237,0,U,46916,999,2076,0,-.343E-5,0
LUCAS (JDRS-1),2020-089A,2026-06-28T15:40:43.276224,1.00271116,.00024478,0.0312,287.6588,155.6905,159.3703,0,U,47202,999,2053,0,-.224E-5,0
SXM-7,2020-096A,2026-06-28T13:45:53.946720,1.00271231,.00039117,0.0264,95.5663,21.4718,280.9454,0,U,47240,999,755,0,-.194E-5,0
CMS-01,2020-099A,2026-06-27T19:44:38.093568,1.00272378,.00030051,0.0369,93.8010,183.3142,17.9656,0,U,47256,999,2030,0,-.153E-5,0
TURKSAT 5A,2021-001A,2026-06-28T10:53:33.773568,1.00269969,.00003602,0.0136,52.2857,355.2814,63.3008,0,U,47306,999,2008,0,.166E-5,0
TIANTONG-1 3,2021-003A,2026-06-28T14:33:27.134784,1.00273798,.00034078,1.7470,340.0433,119.9852,116.5519,0,U,47321,999,2007,0,-.142E-5,0
TJS-6,2021-010A,2026-06-28T13:18:26.578656,1.00273724,.00034901,0.2215,263.3129,222.9791,168.4561,0,U,47613,999,1992,0,.55E-6,0
SBIRS GEO-5 (USA 315),2021-042A,2026-06-28T11:11:36.298176,1.00271730,.00018711,5.0892,329.2102,132.0546,77.0081,0,U,48618,999,1888,0,-.253E-5,0
FENGYUN 4B,2021-047A,2026-06-28T15:05:51.330048,1.00272074,.00058362,0.1808,78.7659,279.1225,250.0375,0,U,48808,999,1868,0,-.319E-5,0
SXM-8,2021-049A,2026-06-28T03:30:01.141920,1.00275737,.00057689,0.0161,15.2313,18.9379,209.4357,0,U,48838,999,1869,0,-.194E-5,0
TIANLIAN 1-05,2021-063A,2026-06-28T14:15:03.411936,1.00273804,.00008835,1.6224,80.6241,25.7923,40.8625,0,U,49011,999,1819,0,.118E-5,0
STAR ONE D2,2021-069A,2026-06-28T06:59:40.365024,1.00269699,.00020208,0.0150,352.3152,129.4504,189.4532,0,U,49055,999,1805,0,0,0
EUTELSAT QUANTUM,2021-069B,2026-06-28T14:23:47.573952,1.00271098,.00026941,0.0111,351.6852,105.2825,83.3640,0,U,49056,999,1804,0,.138E-5,0
ZHONGXING-2E,2021-071A,2026-06-28T14:38:11.680224,1.00270014,.0002266,0.0412,137.3313,0.1313,96.8543,0,U,49062,999,1815,0,-.28E-5,0
