ELEKTRO-L 3             
1 44903U 19095A   26177.53815831 -.00000085  00000+0  00000+0 0  9993
2 44903   0.2811  81.9651 0001516   2.5316  99.8706  1.00272481 23801
SHIJIAN-20 (SJ-20)      
1 44910U 19097A   26178.98184911  .00000142  00000+0  00000+0 0  9994
2 44910   4.9451  74.9367 0015561  55.3176 184.0657  1.00274043 23809
TJS-5                   
1 44978U 20002A   26179.21711332 -.00000330  00000+0  00000+0 0  9996
2 44978   0.0213  39.1662 0007970  12.5701  50.2337  1.00270048 23823
GSAT-30                 
1 45026U 20005A   26179.46711172  .00000000  00000+0  00000+0 0  9996
2 45026   0.0230  38.7919 0003738  47.6185  81.3444  1.00270524 23621
EUTELSAT KONNECT        
1 45027U 20005B   26179.52057975  .00000061  00000+0  00000+0 0  9995
2 45027   0.0716  94.0621 0001961 125.1530 252.0127  1.00270432 24453
JCSAT-17                
1 45245U 20013A   26179.38100556 -.00000303  00000+0  00000+0 0  9994
2 45245   5.3917 356.9767 0003161 103.8507  88.8298  1.00272186 23347
GEO-KOMPSAT-2B          
1 45246U 20013B   26179.54456344 -.00000332  00000+0  00000+0 0  9994
2 45246   0.0422 219.7074 0000136 262.8091 118.4262  1.00272034 23399
BEIDOU-3 G2             
1 45344U 20017A   26179.60630406 -.00000132  00000+0  00000+0 0  9995
2 45344   2.8871  47.5225 0002599  41.0597 126.4813  1.00272004 23370
AEHF-6 (USA 298)        
1 45465U 20022B   26179.61763956 -.00000284  00000+0  00000+0 0  9991
2 45465   2.5239 301.3023 0042472  17.2372 318.2163  1.00267820 23128
BEIDOU-3 G3             
1 45807U 20040A   26179.39849132 -.00000345  00000+0  00000+0 0  9995
2 45807   2.4745  67.4777 0002604 330.9814 132.0434  1.00273939 22180
APSTAR-6D               
1 45863U 20045A   26179.47444848 -.00000306  00000+0  00000+0 0  9993
2 45863   0.0503  97.6806 0002244 354.3631 129.3520  1.00271304 21978
KOREASAT 116            
1 45920U 20048A   26179.65918031 -.00000350  00000+0  00000+0 0  9999
2 45920   0.0169  14.3275 0001269  98.5998 157.3477  1.00270844 21751
EXPRESS 103             
1 45985U 20053A   26178.69004587 -.00000269  00000+0  00000+0 0  9990
2 45985   0.0194 278.9362 0000544  49.3417 292.4363  1.00271621 21759
EXPRESS 80              
1 45986U 20053B   26179.01082564  .00000000  00000+0  00000+0 0  9991
2 45986   0.0195 348.6706 0002093 217.9091 153.4096  1.00271223 21735
BSAT-4B                 
1 46112U 20056A   26179.61219741 -.00000338  00000+0  00000+0 0  9996
2 46112   0.0427 170.2705 0004548 309.9934 126.6545  1.00270232 21503
MEV-2                   
1 46113U 20056B   26179.37631979  .00000002  00000+0  00000+0 0  9998
2 46113   0.0291 284.0988 0000745 227.6296 259.2227  1.00279320 80560
GALAXY 30 (G-30)        
1 46114U 20056C   26179.56565435  .00000048  00000+0  00000+0 0  9993
2 46114   0.0186  20.7083 0002285  74.0504 260.5201  1.00272318 21407
GAOFEN-13 01            
1 46610U 20071A   26178.98291339 -.00000351  00000+0  00000+0 0  9993
2 46610   0.4251  86.4737 0044592 119.5068 182.1818  1.00276332 21028
TIANTONG-1 2            
1 46916U 20082A   26179.66168644 -.00000343  00000+0  00000+0 0  9993
2 46916   0.7762 329.1599 0001744 121.6208 189.1237  1.00271576 20769
LUCAS (JDRS-1)          
1 47202U 20089A   26179.65327866 -.00000224  00000+0  00000+0 0  9999
2 47202   0.0312 287.6588 0002447 155.6905 159.3703  1.00271116 20532
SXM-7                   
1 47240U 20096A   26179.57354105 -.00000194  00000+0  00000+0 0  9992
2 47240   0.0264  95.5663 0003911  21.4718 280.9454  1.00271231  7558
CMS-01                  
1 47256U 20099A   26178.82266312 -.00000153  00000+0  00000+0 0  9996
2 47256   0.0369  93.8010 0003005 183.3142  17.9656  1.00272378 20304
TURKSAT 5A              
1 47306U 21001A   26179.45386312  .00000166  00000+0  00000+0 0  9992
2 47306   0.0136  52.2857 0000360 355.2814  63.3008  1.00269969 20080
TIANTONG-1 3            
1 47321U 21003A   26179.60656406 -.00000142  00000+0  00000+0 0  9997
2 47321   1.7470 340.0433 0003407 119.9852 116.5519  1.00273798 20078
TJS-6                   
1 47613U 21010A   26179.55447429  .00000055  00000+0  00000+0 0  9998
2 47613   0.2215 263.3129 0003490 222.9791 168.4561  1.00273724 19925
SBIRS GEO-5 (USA 315)   
1 48618U 21042A   26179.46639234 -.00000253  00000+0  00000+0 0  9997
2 48618   5.0892 329.2102 0001871 132.0546  77.0081  1.00271730 18889
FENGYUN 4B              
1 48808U 21047A   26179.62906632 -.00000319  00000+0  00000+0 0  9993
2 48808   0.1808  78.7659 0005836 279.1225 250.0375  1.00272074 18687
SXM-8                   
1 48838U 21049A   26179.14584655 -.00000194  00000+0  00000+0 0  9993
2 48838   0.0161  15.2313 0005768  18.9379 209.4357  1.00275737 18695
TIANLIAN 1-05           
1 49011U 21063A   26179.59378949  .00000118  00000+0  00000+0 0  9994
2 49011   1.6224  80.6241 0000883  25.7923  40.8625  1.00273804 18199
STAR ONE D2             
1 49055U 21069A   26179.29143941  .00000000  00000+0  00000+0 0  9997
2 49055   0.0150 352.3152 0002020 129.4504 189.4532  1.00269699 18059
EUTELSAT QUANTUM        
1 49056U 21069B   26179.59985618  .00000138  00000+0  00000+0 0  9998
2 49056   0.0111 351.6852 0002694 105.2825  83.3640  1.00271098 18048
ZHONGXING-2E            
1 49062U 21071A   26179.60985741 -.00000280  00000+0  00000+0 0  9996
2 49062   0.0412 137.3313 0002266   0.1313  96.8543  1.00270014 18150
